[{"OBJECT_NAME":"JILIN-1 06","OBJECT_ID":"2017-074C","EPOCH":"2026-03-09T22:46:57.173376","MEAN_MOTION":15.32444387,"ECCENTRICITY":0.00061285,"INCLINATION":97.4715,"RA_OF_ASC_NODE":171.0354,"ARG_OF_PERICENTER":223.0031,"MEAN_ANOMALY":137.0732,"EPHEMERIS_TYPE":0,"CLASSIFICATION_TYPE":"U","NORAD_CAT_ID":43024,"ELEMENT_SET_NO":999,"REV_AT_EPOCH":45863,"BSTAR":0.00028431628,"MEAN_MOTION_DOT":8.833e-5,"MEAN_MOTION_DDOT":0},{"OBJECT_NAME":"STARLINK-35413","OBJECT_ID":"2025-224E","EPOCH":"2026-03-09T03:23:12.263424","MEAN_MOTION":15.3021501,"ECCENTRICITY":8.989e-5,"INCLINATION":53.1598,"RA_OF_ASC_NODE":13.6647,"ARG_OF_PERICENTER":98.4319,"MEAN_ANOMALY":261.6784,"EPHEMERIS_TYPE":0,"CLASSIFICATION_TYPE":"U","NORAD_CAT_ID":65886,"ELEMENT_SET_NO":999,"REV_AT_EPOCH":2469,"BSTAR":0.0013363724,"MEAN_MOTION_DOT":0.00039449,"MEAN_MOTION_DDOT":0}]
